satname,norad_id,inclination_deg,eccentricity,mean_motion_rev_per_day,perigee_km,apogee_km,l1,l2
STARLINK-1230,45189,53.1552,0.0003041,15.327672,465.47879688569355,469.64235014990663,1 45189U 20012M   26132.20798197  .00028990  00000+0  91142-3 0  9996,2 45189  53.1552 104.3728 0003041  76.2140 283.9200 15.32767200341895
STARLINK-1234,45190,53.0417,0.0007865,15.70962611,350.848126667559,361.44115168598364,1 45190U 20012N   26132.93282297  .00044597  00000+0  35163-3 0  9999,2 45190  53.0417   8.9322 0007865 136.9407 223.2226 15.70962611345954
STARLINK-1269,45197,53.1553,0.0002913,15.32738191,465.6527720112963,469.64112573991133,1 45197U 20012V   26132.92120963  .00028884  00000+0  90896-3 0  9991,2 45197  53.1553 100.8964 0002913  61.0684 299.0610 15.32738191344758
STARLINK-1154,45198,53.0418,0.0002915,15.56250807,396.54372801553745,400.4945185354063,1 45198U 20012W   26132.78846408  .00062005  00000+0  86744-3 0  9995,2 45198  53.0418  61.7900 0002915  37.4148 322.7065 15.56250807345249
STARLINK-1199,45201,53.1557,0.0002758,15.32799634,465.57598656659866,469.35202008003216,1 45201U 20012Z   26132.56576264  .00029770  00000+0  93459-3 0  9999,2 45201  53.1557  86.8166 0002758  93.3372 266.7945 15.32799634344946
STARLINK-1209,45206,53.041,0.0010884,15.62156182,374.07283085854124,388.7870561811951,1 45206U 20012AE  26132.93475125  .00078286  00000+0  87034-3 0  9997,2 45206  53.0410  21.9323 0010884 127.6701 232.5301 15.62156182344922
STARLINK-1231,45212,53.038,0.0004266,15.26188268,484.2908477084984,490.14836996715894,1 45212U 20012AL  26132.56340742  .00024202  00000+0  93361-3 0  9998,2 45212  53.0380  81.1823 0004266  24.9658 335.1545 15.26188268344969
STARLINK-1271,45217,53.1556,0.0002805,15.32804087,465.530557699366,469.3709324243446,1 45217U 20012AR  26133.00003472 -.00000236  00000+0  41841-5 0  9999,2 45217  53.1556  84.9386 0002805  91.4563 146.5566 15.32804087  5878
STARLINK-1191,45222,53.1558,0.0004893,15.36622099,452.7626585448652,459.45064938463474,1 45222U 20012AW  26132.93661671  .00032460  00000+0  90128-3 0  9990,2 45222  53.1558  58.9482 0004893  99.9612 260.1944 15.36622099345371
STARLINK-1212,45223,53.0416,0.0004422,15.64577897,371.4669991250921,377.43898971615636,1 45223U 20012AX  26132.91550089  .00047316  00000+0  48353-3 0  9998,2 45223  53.0416  37.9363 0004422  76.0127 284.1379 15.64577897345659
STARLINK-1215,45225,53.156,0.0002625,15.3305974,464.8929102230013,468.4864442285452,1 45225U 20012AZ  26132.24097698  .00031604  00000+0  98316-3 0  9995,2 45225  53.1560  62.7682 0002625 116.8677 243.2593 15.33059740345212
STARLINK-1221,45227,53.0658,0.0002664,15.44028503,432.4193047558474,436.04893608880866,1 45227U 20012BB  26132.77437271  .00009281  00000+0  20909-3 0  9999,2 45227  53.0658 325.4173 0002664 177.5125 182.5894 15.44028503346608
STARLINK-1222,45228,53.0545,0.0001045,15.53442361,405.97526287249457,407.3932905193233,1 45228U 20012BC  26132.90856271  .00021522  00000+0  34020-3 0  9991,2 45228  53.0545  33.9919 0001045  65.1702 294.9416 15.53442361345595
STARLINK-1226,45229,53.157,0.0003618,15.41336884,439.6951400933258,444.6303089739986,1 45229U 20012BD  26132.93591190  .00041847  00000+0  99248-3 0  9996,2 45229  53.1570  57.1474 0003618 111.6660 248.4731 15.41336884345297
STARLINK-1227,45230,53.1547,0.000433,15.41456761,438.85607964725114,444.76215298397983,1 45230U 20012BE  26132.94774397  .00030115  00000+0  71512-3 0  9991,2 45230  53.1547  57.2252 0004330 109.1638 250.9837 15.41456761345413
STARLINK-1246,45235,53.155,0.0003265,15.32947279,464.7894974484816,469.25938787053747,1 45235U 20012BK  26132.21192332  .00037880  00000+0  11793-2 0  9999,2 45235  53.1550 103.8485 0003265  90.3595 269.7781 15.32947279344703
STARLINK-1270,45237,53.0429,0.0004274,15.57684247,391.4664960728787,397.2556274160579,1 45237U 20012BM  26132.89577756  .00065539  00000+0  86838-3 0  9997,2 45237  53.0429  38.2970 0004274  99.4676 260.6818 15.57684247345645
STARLINK-1279,45360,53.0365,0.0009262,15.70981465,349.85351671480475,362.3280002145857,1 45360U 20019A   26132.46634463  .00044027  00000+0  34671-3 0  9990,2 45360  53.0365 146.0458 0009262  23.0900 337.0531 15.70981465340659
STARLINK-1301,45361,53.0383,0.000656,15.73161554,345.4542160146384,354.28135829538496,1 45361U 20019B   26132.35537314  .00045998  00000+0  33051-3 0  9995,2 45361  53.0383 149.6726 0006560  40.3781 319.7723 15.73161554340601
STARLINK-1262,45366,53.1522,0.000249,15.31988061,468.1762783375634,471.58659151815755,1 45366U 20019G   26132.68710651  .00024993  00000+0  80717-3 0  9996,2 45366  53.1522 227.9018 0002490 357.7552   2.3438 15.31988061339559
STARLINK-1273,45367,53.0461,0.0005587,15.53723327,402.0760784955037,409.6565237841969,1 45367U 20019H   26132.92360424  .00056080  00000+0  86163-3 0  9996,2 45367  53.0461 207.0091 0005587 329.9083  30.1604 15.53723327339854
STARLINK-1277,45369,53.0451,0.0006522,15.5979604,383.8338322676782,392.65990338487154,1 45369U 20019K   26132.47210699  .00048761  00000+0  59915-3 0  9998,2 45369  53.0451 204.4642 0006522 316.3971  43.6525 15.59796040339853
STARLINK-1281,45370,53.1585,0.000382,15.32928494,464.4654913889417,469.69523745536026,1 45370U 20019L   26132.64921940  .00026184  00000+0  82041-3 0  9998,2 45370  53.1585 227.8697 0003820 352.8286   7.2661 15.32928494339550
STARLINK-1300,45374,53.1587,0.0003741,15.33179749,463.7719725773586,468.8930046487394,1 45374U 20019Q   26132.53789939  .00029127  00000+0  90382-3 0  9997,2 45374  53.1587 228.3667 0003741   1.7823 358.3192 15.33179749339537
STARLINK-1302,45375,53.0465,0.0004567,15.64824852,370.6589461270505,376.82611288930275,1 45375U 20019R   26132.47272973  .00029214  00000+0  29840-3 0  9994,2 45375  53.0465 201.3207 0004567 346.8920  13.1975 15.64824852339891
STARLINK-1304,45376,53.0438,0.0005837,15.59120784,386.2497311338293,394.151088225889,1 45376U 20019S   26132.90253559  .00062520  00000+0  78513-3 0  9990,2 45376  53.0438 199.5911 0005837 339.2672  20.8102 15.59120784339954
STARLINK-1305,45377,53.0384,0.0010316,15.65153402,365.83334940386703,379.7618776985455,1 45377U 20019T   26132.86086238  .00031080  00000+0  31232-3 0  9998,2 45377  53.0384 179.8639 0010316 351.5270   8.5569 15.65153402340235
STARLINK-1319,45379,53.0409,0.0005055,15.73342316,345.95170905475425,352.7532008937342,1 45379U 20019V   26132.93124076  .00043604  00000+0  31137-3 0  9990,2 45379  53.0409 172.3948 0005055  10.9254 349.1873 15.73342316340345
STARLINK-1266,45383,53.0456,0.0005314,15.5546158,397.2088720145184,404.41353816688843,1 45383U 20019Z   26132.53505207  .00052891  00000+0  76340-3 0  9993,2 45383  53.0456 186.3345 0005314 334.7610  25.3140 15.55461580340108
STARLINK-1267,45384,53.046,0.0007454,15.61389105,378.60341789283393,388.68388048464385,1 45384U 20019AA  26132.54436192  .00064498  00000+0  74206-3 0  9996,2 45384  53.0460 177.9878 0007454  16.4130 343.7123 15.61389105340229
STARLINK-1272,45386,53.0398,0.0008581,15.66808218,362.25445551400026,373.8322502356041,1 45386U 20019AC  26132.77217590  .00031605  00000+0  29741-3 0  9990,2 45386  53.0398 156.5634 0008581  10.3479 349.7711 15.66808218340545
STARLINK-1274,45387,53.0224,0.0009629,15.57361204,388.77543414015054,401.8197144433216,1 45387U 20019AD  26132.78041603  .00060992  00000+0  81757-3 0  9998,2 45387  53.0224 154.1203 0009629  31.7700 328.3890 15.57361204340571
STARLINK-1280,45388,53.0377,0.0005931,15.73973676,343.564285505483,351.5422993303482,1 45388U 20019AE  26132.38185066  .00046836  00000+0  32500-3 0  9990,2 45388  53.0377 167.6372 0005931  15.5834 344.5365 15.73973676340349
STARLINK-1283,45389,53.0395,0.0004384,15.68037429,361.5612827087616,367.47324196597856,1 45389U 20019AF  26132.49246302  .00033649  00000+0  30128-3 0  9996,2 45389  53.0395 157.2747 0004384  35.2951 324.8354 15.68037429340510
STARLINK-1284,45390,53.0408,0.0004703,15.67116306,363.9868320308078,370.3314575846143,1 45390U 20019AG  26132.49201843  .00031642  00000+0  29444-3 0  9999,2 45390  53.0408 180.9510 0004703 322.2450  37.8235 15.67116306340178
STARLINK-1297,45395,53.0416,0.0006466,15.6560073,367.14729837617324,375.8759439730775,1 45395U 20019AM  26132.92667715  .00032252  00000+0  31863-3 0  9992,2 45395  53.0416 177.5383 0006466 333.4603  26.6080 15.65600730339443
STARLINK-1307,45397,53.053,0.0002092,15.54905852,401.0078259490274,403.8448136420302,1 45397U 20019AP  26132.85956934  .00021252  00000+0  31868-3 0  9993,2 45397  53.0530 181.6356 0002092  26.1432 333.9684 15.54905852340026
STARLINK-1255,45399,53.036,0.0006737,15.62262148,376.5705645891994,385.677993236407,1 45399U 20019AR  26132.78442803  .00069288  00000+0  76998-3 0  9996,2 45399  53.0360 151.5249 0006737  21.1144 339.0146 15.62262148340428
STARLINK-1260,45404,53.1566,0.0005405,15.35481529,455.79485734813716,463.18633277840127,1 45404U 20019AW  26132.86845318  .00028135  00000+0  81208-3 0  9996,2 45404  53.1566 190.0599 0005405 359.9788   0.1214 15.35481529339816
STARLINK-1263,45405,53.157,0.0003902,15.32991374,464.2222483309979,469.56410988277275,1 45405U 20019AX  26132.85943933  .00024325  00000+0  76165-3 0  9991,2 45405  53.1570 190.8724 0003902  20.9033 339.2128 15.32991374339808
STARLINK-1265,45406,53.1568,0.0005146,15.35778219,455.09175663782844,462.1281365952873,1 45406U 20019AY  26132.86712791  .00026715  00000+0  76456-3 0  9997,2 45406  53.1568 190.1224 0005146 354.7524   5.3425 15.35778219339815
STARLINK-1278,45408,53.0401,0.0006755,15.66317497,364.8943169240865,374.01031008663267,1 45408U 20019BA  26132.83998422  .00031574  00000+0  30324-3 0  9996,2 45408  53.0401 177.0684 0006755 356.8855   3.2117 15.66317497339987
STARLINK-1296,45412,53.1557,0.000579,15.36005087,453.97865152226404,461.89482491111903,1 45412U 20019BE  26132.45493377  .00033979  00000+0  96146-3 0  9993,2 45412  53.1557 191.7854 0005790 348.0250  12.0614 15.36005087339758
